HIMAWARI-8              
1 40267U 14060A   24048.56507677 -.00000282  00000+0  00000+0 0  9992
2 40267   0.0265 187.0219 0001390 142.8139 161.2503  1.00270490 34236
